ONEWEB-0387             
1 49313U 21090AL  24052.78451329  .00000115  00000+0  25052-3 0  9997
2 49313  87.9131  82.9641 0001741 104.7330 255.3996 13.20771356118095
ONEWEB-0388             
1 49314U 21090AM  24052.91334281  .00000011  00000+0 -56494-5 0  9992
2 49314  87.9158 113.4402 0002138 101.2774 258.8599 13.19724387114795
ONEWEB-0389             
1 50469U 21132A   24052.89021078 -.00000079  00000+0 -23728-3 0  9993
2 50469  87.9259 174.1926 0001616 124.1695 235.9590 13.17647988106631
ONEWEB-0390             
1 50470U 21132B   24052.89179084  .00000006  00000+0 -17273-4 0  9994
2 50470  87.9258 174.2002 0001278 109.1136 251.0134 13.17649302106630
ONEWEB-0391             
1 50471U 21132C   24052.89337232  .00000006  00000+0 -18350-4 0  9993
2 50471  87.9265 174.1735 0001796 123.2943 236.8361 13.17648659106636
ONEWEB-0392             
1 50472U 21132D   24052.84749577 -.00000002  00000+0 -37797-4 0  9991
2 50472  87.9250 174.1998 0001564 119.1830 240.9458 13.17648694106669
ONEWEB-0393             
1 50473U 21132E   24052.84013545 -.00000254  00000+0 -67069-3 0  9994
2 50473  87.9261 174.1743 0001272 115.5856 244.5408 13.19247617106650
ONEWEB-0394             
1 50474U 21132F   24052.77135797  .00000030  00000+0  42129-4 0  9992
2 50474  87.9230 143.9199 0001924 110.8392 249.2946 13.18685385110047
ONEWEB-0395             
1 50475U 21132G   24052.88362108 -.00000375  00000+0 -10948-2 0  9999
2 50475  87.9014 189.3354 0001424 115.5376 244.5899 13.11419394104792
ONEWEB-0396             
1 50476U 21132H   24052.76503260 -.00000042  00000+0 -13934-3 0  9993
2 50476  87.9237 143.9137 0002012 112.1601 247.9745 13.18685041110080
ONEWEB-0397             
1 50477U 21132J   24052.77925722  .00000018  00000+0  12877-4 0  9993
2 50477  87.9235 143.9121 0002017 112.8773 247.2572 13.18686200110061
ONEWEB-0398             
1 50478U 21132K   24052.92745901 -.00000222  00000+0 -66332-3 0  9993
2 50478  87.9006 189.3112 0001156 111.2694 248.8557 13.11415974104693
ONEWEB-0399             
1 50479U 21132L   24052.91285847  .00000377  00000+0  10281-2 0  9991
2 50479  87.9009 189.3287 0002042 108.4835 251.6515 13.11416854104683
ONEWEB-0400             
1 50480U 21132M   24052.75870477 -.00000035  00000+0 -12167-3 0  9993
2 50480  87.9234 143.9238 0001633 106.1487 253.9825 13.18686446110050
ONEWEB-0401             
1 50481U 21132N   24052.80139567 -.00000029  00000+0 -10596-3 0  9995
2 50481  87.9230 143.9137 0002197 104.9882 255.1493 13.18685479110067
ONEWEB-0402             
1 50482U 21132P   24052.76661431  .00000008  00000+0 -13504-4 0  9990
2 50482  87.9232 143.9178 0002252  93.1655 266.9735 13.18684627110089
ONEWEB-0403             
1 50483U 21132Q   24052.79031202 -.00000035  00000+0 -12254-3 0  9992
2 50483  87.9233 143.9185 0002124 111.7512 248.3846 13.18685691110041
ONEWEB-0404             
1 50484U 21132R   24052.89500118  .00000435  00000+0  11906-2 0  9995
2 50484  87.9019 189.2950 0001777 123.1090 237.0209 13.11417744104774
ONEWEB-0405             
1 50485U 21132S   24052.80613612 -.00000023  00000+0 -89813-4 0  9990
2 50485  87.9233 143.9047 0002330 104.8435 255.2956 13.18685704110444
ONEWEB-0406             
1 50486U 21132T   24052.79507082 -.00000034  00000+0 -12009-3 0  9996
2 50486  87.9236 143.9154 0001771 121.4167 238.7139 13.18686983110070
ONEWEB-0407             
1 50487U 21132U   24052.78874465 -.00000024  00000+0 -94324-4 0  9998
2 50487  87.9230 143.9243 0002105 107.8399 252.2963 13.18686214110018
ONEWEB-0409             
1 50488U 21132V   24052.89336433  .00000347  00000+0  94415-3 0  9995
2 50488  87.9010 189.3021 0001459 130.3752 229.7503 13.11421140104669
ONEWEB-0412             
1 50489U 21132W   24052.77767753 -.00000013  00000+0 -64739-4 0  9995
2 50489  87.9235 143.9204 0002472 105.3141 254.8265 13.18686329110107
ONEWEB-0413             
1 50490U 21132X   24052.78242317 -.00000067  00000+0 -20153-3 0  9992
2 50490  87.9235 143.9328 0002276 100.0731 260.0658 13.18685731110049
ONEWEB-0414             
1 50491U 21132Y   24052.76819774 -.00000029  00000+0 -10669-3 0  9997
2 50491  87.9231 143.9189 0002273 111.3012 248.8363 13.18685341110072
ONEWEB-0417             
1 50492U 21132Z   24052.77609597  .00000001  00000+0 -31368-4 0  9998
2 50492  87.9238 143.9120 0001786 117.0475 243.0840 13.18685381110058
ONEWEB-0418             
1 50493U 21132AA  24052.78952995 -.00000078  00000+0 -23116-3 0  9999
2 50493  87.9234 143.9185 0001842 125.3474 234.7830 13.18685759110112
ONEWEB-0419             
1 50494U 21132AB  24052.80297261 -.00000022  00000+0 -88479-4 0  9994
2 50494  87.9230 143.9354 0001547 115.4676 244.6616 13.18685497110035
ONEWEB-0420             
1 50495U 21132AC  24052.76977386  .00000044  00000+0  78040-4 0  9998
2 50495  87.9231 143.9507 0002061  96.9544 263.1822 13.18685867110021
ONEWEB-0421             
1 50496U 21132AD  24052.76345855 -.00000066  00000+0 -20076-3 0  9990
2 50496  87.9239 143.9089 0002370 108.7513 251.3877 13.18685184110061
ONEWEB-0424             
1 50497U 21132AE  24052.79823392 -.00000069  00000+0 -20874-3 0  9990
2 50497  87.9233 143.9135 0001287 108.0717 252.0555 13.18685829110093
ONEWEB-0426             
1 50498U 21132AF  24052.76029418 -.00000046  00000+0 -14915-3 0  9999
2 50498  87.9231 143.9428 0002241 124.5960 235.5384 13.18685048110034
ONEWEB-0427             
1 50499U 21132AG  24052.79664758 -.00000073  00000+0 -21684-3 0  9996
2 50499  87.9231 143.9117 0001840 115.6748 244.4575 13.18686099110060
ONEWEB-0429             
1 50500U 21132AH  24052.78399585 -.00000036  00000+0 -12393-3 0  9997
2 50500  87.9237 143.9130 0001900 104.7246 255.4096 13.18686661110035
ONEWEB-0430             
1 50501U 21132AJ  24052.77294251  .00000014  00000+0  33606-5 0  9997
2 50501  87.9234 143.9237 0001448  95.1056 265.0241 13.18686237110072
ONEWEB-0432             
1 50502U 21132AK  24052.80453537  .00001485  00000+0  37316-2 0  9998
2 50502  87.9234 143.9118 0001946 104.3370 255.7979 13.18697762110031
ONEWEB-0440             
1 50503U 21132AL  24052.79191717  .00000945  00000+0  23637-2 0  9997
2 50503  87.9235 143.8986 0002470 104.7936 255.3470 13.18681526110022
ONEWEB-0450             
1 50504U 21132AM  24052.78558636  .00000008  00000+0 -11638-4 0  9995
2 50504  87.9237 143.9288 0001894  92.7487 267.3862 13.18685547110055
ONEWEB-0410             
1 51622U 22012A   24052.83326633 -.00000029  00000+0 -10888-3 0  9990
2 51622  87.9254 174.1901 0002344 136.5434 223.5883 13.17649033102242
ONEWEB-0411             
1 51623U 22012B   24052.89572211 -.00000374  00000+0 -11082-2 0  9991
2 51623  87.8939 204.3695 0001272  98.7981 261.3290 13.10370717 98455
ONEWEB-0415             
1 51624U 22012C   24052.89250280 -.00002058  00000+0 -59355-2 0  9997
2 51624  87.8936 204.3979 0001293 101.3297 258.7976 13.10353122 98454
ONEWEB-0416             
1 51625U 22012D   24052.90384914 -.00000598  00000+0 -17508-2 0  9993
2 51625  87.8942 204.3834 0001599 103.9435 256.1870 13.10372298 98497
ONEWEB-0422             
1 51626U 22012E   24052.84275321 -.00000046  00000+0 -15286-3 0  9998
2 51626  87.9256 174.1856 0002156  86.8651 273.2727 13.17648489102351
ONEWEB-0423             
1 51627U 22012F   24052.83642201  .00000006  00000+0 -16623-4 0  9995
2 51627  87.9257 174.1859 0001803 106.2475 253.8855 13.17649226102249
ONEWEB-0425             
1 51628U 22012G   24052.91359685 -.00000540  00000+0 -15823-2 0  9999
2 51628  87.8942 204.3688 0001959 109.7241 250.4098 13.10374670 98491
ONEWEB-0428             
1 51629U 22012H   24052.89410185 -.00000291  00000+0 -87018-3 0  9999
2 51629  87.8937 204.3864 0001618  86.7770 273.3542 13.10370069 98457
ONEWEB-0431             
1 51630U 22012J   24052.93947015  .00000571  00000+0  15998-2 0  9999
2 51630  87.8936 204.3814 0001108  74.9857 285.1393 13.10373585 98510
ONEWEB-0434             
1 51631U 22012K   24052.91684971 -.00000466  00000+0 -13705-2 0  9996
2 51631  87.8945 204.3930 0001736  94.8577 265.2748 13.10375920 98492
ONEWEB-0435             
1 51632U 22012L   24052.92497563 -.00000074  00000+0 -24682-3 0  9999
2 51632  87.8945 204.3815 0001762  85.8397 274.2932 13.10375705 98489
ONEWEB-0436             
1 51633U 22012M   24052.82852148 -.00000003  00000+0 -40273-4 0  9990
2 51633  87.9253 174.1970 0001848  98.4589 261.6752 13.17649156102226
ONEWEB-0438             
1 51634U 22012N   24052.90871961 -.00000629  00000+0 -18371-2 0  9990
2 51634  87.8944 204.3860 0001731 106.1893 253.9425 13.10373794 98515
ONEWEB-0439             
1 51635U 22012P   24052.91197046 -.00000613  00000+0 -17923-2 0  9992
2 51635  87.8945 204.3690 0001515 100.0474 260.0824 13.10374475 98492
ONEWEB-0442             
1 51636U 22012Q   24052.89653631 -.00000043  00000+0 -14321-3 0  9994
2 51636  87.9256 174.2148 0001728 134.8539 225.2733 13.17651216102222
ONEWEB-0443             
1 51637U 22012R   24052.83959542 -.00000074  00000+0 -22274-3 0  9999
2 51637  87.9260 174.2315 0002162  97.7614 262.3763 13.17648721102264
ONEWEB-0444             
1 51638U 22012S   24052.90221701 -.00000578  00000+0 -16927-2 0  9993
2 51638  87.8938 204.3989 0001744  96.6981 263.4345 13.10371592 98509
ONEWEB-0445             
1 51639U 22012T   24052.92334640 -.00000128  00000+0 -40182-3 0  9995
2 51639  87.8937 204.3716 0001351 110.8130 249.3142 13.10375293 98517
ONEWEB-0446             
1 51640U 22012U   24052.90061469  .00000325  00000+0  89363-3 0  9992
2 51640  87.8913 204.3932 0001154  98.7081 261.4177 13.10370821 98495
ONEWEB-0448             
1 51641U 22012V   24052.90546987 -.00000646  00000+0 -18856-2 0  9992
2 51641  87.8943 204.3908 0001751  98.2322 261.9004 13.10372808 98466
ONEWEB-0449             
1 51642U 22012W   24052.91034688 -.00000622  00000+0 -18191-2 0  9990
2 51642  87.8938 204.3910 0001716 109.7021 250.4291 13.10374748 98476
